              M50 Cartesian                         M50 Keplerian  
    -----------------------------------       --------------------------------
     X    =       -4030978.11                 A    =         6778511.92  meter
     Y    =        2382233.04  meter          E    =           .0006528
     Z    =        4896416.26                 I    =           51.99287
     XDOT =      -1308.404333                 Wp   =          100.90593
     YDOT =      -7167.055999  meter/sec      RA   =           94.60976  deg
     ZDOT =       2405.901972                 TA   =          325.62152
                                              MA   =          325.66374
                                              Ha   =            221.087  n.mi
                                              Hp   =            214.054
 
              M50 Cartesian                         J2K Cartesian  
    -----------------------------------       --------------------------------
     X    =      -13224993.80                 X    =        -4081102.08
     Y    =        7815725.21  feet           Y    =         2336876.17  meter
     Z    =       16064357.81                 Z    =         4876712.68
     XDOT =      -4292.665134                 XDOT =       -1239.850200
     YDOT =     -23513.963250  feet/sec       YDOT =       -7181.303909  meter/sec
     ZDOT =       7893.379172                 ZDOT =        2399.713219
 
              TDR Cartesian                         TDR Cartesian  
    -----------------------------------       --------------------------------
     X    =      -12361923.05                 X    =        -3767914.15
     Y    =        9269642.44  feet           Y    =         2825387.01  meter
     Z    =       15978304.07                 Z    =         4870187.08
     XDOT =      -6290.049513                 XDOT =       -1917.207091
     YDOT =     -21972.393307  feet/sec       YDOT =       -6697.185480  meter/sec
     ZDOT =       7867.730053                 ZDOT =        2398.084120
  
  
    The mean element set is posted at the UTC for which position is
    just north of the next ascending node relative to the above
    vector time
 
 
    TWO LINE MEAN ELEMENT SET
  
    ISS
    1 25544U 98067A   16089.55243544  .00016717  00000-0  10270-3 0  9115
    2 25544  51.6398  95.2052 0002348  12.0489 348.0720 15.54382370 32599
  
  
    Satellite: ISS
    Catalog Number: 25544
    Epoch time:      16089.55243544   =   yrday.fracday
    Element set:     911
    Inclination:       51.6398  deg
    RA of node:        95.2052  deg
    Eccentricity:     .0002348     
    Arg of perigee:    12.0489  deg
    Mean anomaly:     348.0720  deg
    Mean motion:   15.54382370  rev/day
    Decay rate:    1.67170E-04  rev/day^2
    Epoch rev:            3259
    Checksum:              308
 
 
    Coasting Arc #13 (Orbit 3273)
    ---------------------------------------
 
    Vector Time (GMT): 2016/090/12:00:00.000
    Vector Time (MET): N/A
    Weight (LBS)     : 890369.9
 
              M50 Cartesian                         M50 Keplerian  
    -----------------------------------       --------------------------------
     X    =        4166664.72                 A    =         6776640.22  meter
     Y    =        -493775.86  meter          E    =           .0015641
     Z    =       -5334838.04                 I    =           51.98858
     XDOT =        372.518028                 Wp   =           78.60325
     YDOT =       7637.245020  meter/sec      RA   =           89.63268  deg
     ZDOT =       -413.952852                 TA   =          187.45086
                                              MA   =          187.47413
                                              Ha   =            220.950  n.mi
                                              Hp   =            214.138
 
              M50 Cartesian                         J2K Cartesian  
    -----------------------------------       --------------------------------
     X    =       13670159.84                 X    =         4197791.03
     Y    =       -1619999.55  feet           Y    =         -447007.88  meter
     Z    =      -17502749.48                 Z    =        -5314521.70
     XDOT =       1222.172008                 XDOT =         289.099581
     YDOT =      25056.578149  feet/sec       YDOT =        7640.944308  meter/sec
     ZDOT =      -1358.113032                 ZDOT =        -412.346524
 
              TDR Cartesian                         TDR Cartesian  
    -----------------------------------       --------------------------------
     X    =       13455352.07                 X    =         4101191.31
     Y    =       -3396703.67  feet           Y    =        -1035315.28  meter
     Z    =      -17414356.51                 Z    =        -5307895.86
     XDOT =       4224.921746                 XDOT =        1287.756148
     YDOT =      23703.568888  feet/sec       YDOT =        7224.847797  meter/sec
     ZDOT =      -1352.478533                 ZDOT =        -412.235457
  
  
    The mean element set is posted at the UTC for which position is
    just north of the next ascending node relative to the above
    vector time
 
 
    TWO LINE MEAN ELEMENT SET
  
    ISS
    1 25544U 98067A   16090.51679621  .00016717  00000-0  10270-3 0  9123
    2 25544  51.6401  90.3959 0002334  14.1190 346.0027 15.54394617 32745
  
  
    Satellite: ISS
    Catalog Number: 25544
    Epoch time:      16090.51679621   =   yrday.fracday
    Element set:     912
    Inclination:       51.6401  deg
    RA of node:        90.3959  deg
    Eccentricity:     .0002334     
    Arg of perigee:    14.1190  deg
    Mean anomaly:     346.0027  deg
    Mean motion:   15.54394617  rev/day
    Decay rate:    1.67170E-04  rev/day^2
    Epoch rev:            3274
    Checksum:              292
 
 
    Coasting Arc #14 (Orbit 3289)
    ---------------------------------------
 
    Vector Time (GMT): 2016/091/12:00:00.000
    Vector Time (MET): N/A
    Weight (LBS)     : 890369.9
 
              M50 Cartesian                         M50 Keplerian  
    -----------------------------------       --------------------------------
     X    =       -4169641.91                 A    =         6777341.98  meter
     Y    =       -1454385.38  meter          E    =           .0007044
     Z    =        5138279.68                 I    =           51.98961
     XDOT =        583.951199                 Wp   =           42.61470
     YDOT =      -7472.450221  meter/sec      RA   =           84.65290  deg
     ZDOT =      -1634.848681                 TA   =           63.11389
                                              MA   =           63.04191
                                              Ha   =            221.061  n.mi
                                              Hp   =            213.907
 
              M50 Cartesian                         J2K Cartesian  
    -----------------------------------       --------------------------------
     X    =      -13679927.53                 X    =        -4178028.31
     Y    =       -4771605.57  feet           Y    =        -1501059.54  meter
     Z    =       16857872.98                 Z    =         5118004.33
     XDOT =       1915.850392                 XDOT =         675.408001
     YDOT =     -24515.912799  feet/sec       YDOT =       -7465.408863  meter/sec
     ZDOT =      -5363.676776                 ZDOT =       -1631.789220
 
              TDR Cartesian                         TDR Cartesian  
    -----------------------------------       --------------------------------
     X    =      -14338982.78                 X    =        -4370521.95
     Y    =       -2693911.57  feet           Y    =         -821104.25  meter
     Z    =       16770000.94                 Z    =         5111496.29
     XDOT =      -1867.012619                 XDOT =        -569.065446
     YDOT =     -23491.426296  feet/sec       YDOT =       -7160.186735  meter/sec
     ZDOT =      -5349.045432                 ZDOT =       -1630.389048
  
  
    The mean element set is posted at the UTC for which position is
    just north of the next ascending node relative to the above
    vector time
 
 
    TWO LINE MEAN ELEMENT SET
  
    ISS
    1 25544U 98067A   16091.54543437  .00016717  00000-0  10270-3 0  9133
    2 25544  51.6395  85.2648 0002399  16.3902 343.7328 15.54433462 32909
  
  
    Satellite: ISS
    Catalog Number: 25544
    Epoch time:      16091.54543437   =   yrday.fracday
    Element set:     913
    Inclination:       51.6395  deg
    RA of node:        85.2648  deg
    Eccentricity:     .0002399     
    Arg of perigee:    16.3902  deg
    Mean anomaly:     343.7328  deg
    Mean motion:   15.54433462  rev/day
    Decay rate:    1.67170E-04  rev/day^2
    Epoch rev:            3290
    Checksum:              316
 
 
    Coasting Arc #15 (Orbit 3304)
    ---------------------------------------
 
    Vector Time (GMT): 2016/092/12:00:00.000
    Vector Time (MET): N/A
    Weight (LBS)     : 890369.9
 
              M50 Cartesian                         M50 Keplerian  
    -----------------------------------       --------------------------------
     X    =        4058080.45                 A    =         6780479.96  meter
     Y    =        3243111.86  meter          E    =           .0009006
     Z    =       -4365799.65                 I    =           51.99608
     XDOT =      -1560.785980                 Wp   =           94.39253
     YDOT =       6640.505424  meter/sec      RA   =           79.67964  deg
     ZDOT =       3487.597137                 TA   =          210.87101
                                              MA   =          210.92400
                                              Ha   =            221.042  n.mi
                                              Hp   =            213.936
 
